[{"OBJECT_NAME":"SPIRONE","OBJECT_ID":"2025-274H","EPOCH":"2026-03-09T18:01:36.945120","MEAN_MOTION":14.93072072,"ECCENTRICITY":0.00119665,"INCLINATION":97.7435,"RA_OF_ASC_NODE":359.5247,"ARG_OF_PERICENTER":353.7886,"MEAN_ANOMALY":6.3183,"EPHEMERIS_TYPE":0,"CLASSIFICATION_TYPE":"U","NORAD_CAT_ID":66657,"ELEMENT_SET_NO":999,"REV_AT_EPOCH":1538,"BSTAR":0.00040236773,"MEAN_MOTION_DOT":4.139e-5,"MEAN_MOTION_DDOT":0},{"OBJECT_NAME":"COSMOS 249 DEB","OBJECT_ID":"1968-091DH","EPOCH":"2026-03-08T22:08:16.528992","MEAN_MOTION":13.42836717,"ECCENTRICITY":0.07285142,"INCLINATION":62.844,"RA_OF_ASC_NODE":186.5027,"ARG_OF_PERICENTER":204.8122,"MEAN_ANOMALY":151.6172,"EPHEMERIS_TYPE":0,"CLASSIFICATION_TYPE":"U","NORAD_CAT_ID":19317,"ELEMENT_SET_NO":999,"REV_AT_EPOCH":83390,"BSTAR":0.00069278588,"MEAN_MOTION_DOT":1.907e-5,"MEAN_MOTION_DDOT":0}]
